{
  "norad_id": 65350,
  "name": "STARLINK-34892",
  "history": [
    {
      "epoch": "2026-03-28T18:57:29.043936",
      "apogee_km": 476.232964851828,
      "perigee_km": 474.2024529186792,
      "latitude_deg": -19.384630808823726,
      "longitude_deg": 70.83227103995159,
      "semi_major_axis_km": 6853.354708885253,
      "eccentricity": 0.00014814,
      "inclination_deg": 53.1596,
      "raan_deg": 117.8399,
      "arg_perigee_deg": 84.7223,
      "mean_anomaly_deg": 275.3947,
      "mean_motion_rev_day": 15.30199116
    }
  ]
}